{
"type": "FeatureCollection",
"name": "accepted_snaps",
"crs": { "type": "name", "properties": { "name": "urn:ogc:def:crs:OGC:1.3:CRS84" } },
"features": [
{ "type": "Feature", "properties": { "candidate_id": 264, "edge_a": 2310, "edge_b": 2311, "node_a": 2984, "node_b": 2985, "distance_m": 0.45943917910387783, "confidence": "strong" }, "geometry": { "type": "Point", "coordinates": [ 80.246382610186799, 13.131339128759665 ] } },
{ "type": "Feature", "properties": { "candidate_id": 461, "edge_a": 3293, "edge_b": 3295, "node_a": 4236, "node_b": 4237, "distance_m": 0.16570027205415763, "confidence": "strong" }, "geometry": { "type": "Point", "coordinates": [ 80.247848608471131, 13.094726902695673 ] } },
{ "type": "Feature", "properties": { "candidate_id": 660, "edge_a": 5052, "edge_b": 5050, "node_a": 6510, "node_b": 6509, "distance_m": 0.44304638557559145, "confidence": "strong" }, "geometry": { "type": "Point", "coordinates": [ 80.163929367137612, 13.085051526275302 ] } },
{ "type": "Feature", "properties": { "candidate_id": 1777, "edge_a": 11708, "edge_b": 11706, "node_a": 14452, "node_b": 14780, "distance_m": 0.49676510589746714, "confidence": "strong" }, "geometry": { "type": "Point", "coordinates": [ 80.235317823914841, 12.92532917071831 ] } },
{ "type": "Feature", "properties": { "candidate_id": 1905, "edge_a": 12241, "edge_b": 12240, "node_a": 15424, "node_b": 15421, "distance_m": 0.28846866423920065, "confidence": "strong" }, "geometry": { "type": "Point", "coordinates": [ 80.218007640817021, 12.892632327597946 ] } },
{ "type": "Feature", "properties": { "candidate_id": 2933, "edge_a": 19878, "edge_b": 19879, "node_a": 23139, "node_b": 23140, "distance_m": 0.46623807082724311, "confidence": "strong" }, "geometry": { "type": "Point", "coordinates": [ 80.284066959833311, 13.109737639777132 ] } },
{ "type": "Feature", "properties": { "candidate_id": 3201, "edge_a": 21134, "edge_b": 21136, "node_a": 24582, "node_b": 24583, "distance_m": 0.44149800677997303, "confidence": "strong" }, "geometry": { "type": "Point", "coordinates": [ 80.222183513913251, 13.063849821305775 ] } },
{ "type": "Feature", "properties": { "candidate_id": 3220, "edge_a": 21287, "edge_b": 21289, "node_a": 24755, "node_b": 24756, "distance_m": 0.41622541980032984, "confidence": "strong" }, "geometry": { "type": "Point", "coordinates": [ 80.20925354152638, 13.073581570726398 ] } },
{ "type": "Feature", "properties": { "candidate_id": 3557, "edge_a": 23703, "edge_b": 23701, "node_a": 23642, "node_b": 27617, "distance_m": 0.39523568882503096, "confidence": "strong" }, "geometry": { "type": "Point", "coordinates": [ 80.258285243319648, 13.117274809419181 ] } },
{ "type": "Feature", "properties": { "candidate_id": 3908, "edge_a": 26167, "edge_b": 26168, "node_a": 30200, "node_b": 30202, "distance_m": 0.38129843942652691, "confidence": "strong" }, "geometry": { "type": "Point", "coordinates": [ 80.261605302344734, 13.133514012027367 ] } },
{ "type": "Feature", "properties": { "candidate_id": 3937, "edge_a": 26311, "edge_b": 26310, "node_a": 30369, "node_b": 30367, "distance_m": 0.32296625315937327, "confidence": "strong" }, "geometry": { "type": "Point", "coordinates": [ 80.279033339574042, 13.139058167865354 ] } },
{ "type": "Feature", "properties": { "candidate_id": 3960, "edge_a": 26480, "edge_b": 26481, "node_a": 30526, "node_b": 30527, "distance_m": 0.49986312100610908, "confidence": "strong" }, "geometry": { "type": "Point", "coordinates": [ 80.2963471360505, 13.119508804239352 ] } },
{ "type": "Feature", "properties": { "candidate_id": 4222, "edge_a": 27853, "edge_b": 27851, "node_a": 31860, "node_b": 31858, "distance_m": 0.39676975689834876, "confidence": "strong" }, "geometry": { "type": "Point", "coordinates": [ 80.267032059895257, 13.067887764701798 ] } },
{ "type": "Feature", "properties": { "candidate_id": 4577, "edge_a": 30625, "edge_b": 30623, "node_a": 31203, "node_b": 27705, "distance_m": 0.38471592121412346, "confidence": "strong" }, "geometry": { "type": "Point", "coordinates": [ 80.264649840721532, 13.099911295878654 ] } },
{ "type": "Feature", "properties": { "candidate_id": 5753, "edge_a": 39000, "edge_b": 38999, "node_a": 40189, "node_b": 40190, "distance_m": 0.055274225242154279, "confidence": "strong" }, "geometry": { "type": "Point", "coordinates": [ 80.267063202443026, 13.08974420995683 ] } },
{ "type": "Feature", "properties": { "candidate_id": 6632, "edge_a": 45822, "edge_b": 45823, "node_a": 51, "node_b": 50, "distance_m": 0.072640555142216318, "confidence": "strong" }, "geometry": { "type": "Point", "coordinates": [ 80.209371541675779, 12.920467191507841 ] } },
{ "type": "Feature", "properties": { "candidate_id": 7079, "edge_a": 48809, "edge_b": 48808, "node_a": 48901, "node_b": 48900, "distance_m": 0.40406030477379207, "confidence": "strong" }, "geometry": { "type": "Point", "coordinates": [ 80.237538378771831, 13.051161944405559 ] } },
{ "type": "Feature", "properties": { "candidate_id": 7482, "edge_a": 51447, "edge_b": 51449, "node_a": 47567, "node_b": 47574, "distance_m": 0.0028442920456810995, "confidence": "strong" }, "geometry": { "type": "Point", "coordinates": [ 80.237232106628596, 12.973172959000197 ] } },
{ "type": "Feature", "properties": { "candidate_id": 8517, "edge_a": 58614, "edge_b": 58616, "node_a": 34140, "node_b": 55559, "distance_m": 0.46956666191378765, "confidence": "strong" }, "geometry": { "type": "Point", "coordinates": [ 80.271815066257105, 13.077473895861358 ] } },
{ "type": "Feature", "properties": { "candidate_id": 8536, "edge_a": 58820, "edge_b": 58821, "node_a": 53233, "node_b": 53234, "distance_m": 0.49406351803884913, "confidence": "strong" }, "geometry": { "type": "Point", "coordinates": [ 80.292069879566711, 13.100582183932843 ] } },
{ "type": "Feature", "properties": { "candidate_id": 8862, "edge_a": 61310, "edge_b": 61311, "node_a": 55039, "node_b": 55038, "distance_m": 0.39667853508112216, "confidence": "strong" }, "geometry": { "type": "Point", "coordinates": [ 80.232847485740436, 13.09380748049815 ] } },
{ "type": "Feature", "properties": { "candidate_id": 8863, "edge_a": 61310, "edge_b": 61309, "node_a": 48453, "node_b": 48452, "distance_m": 0.41445372526560914, "confidence": "strong" }, "geometry": { "type": "Point", "coordinates": [ 80.232847500495325, 13.093800924246432 ] } },
{ "type": "Feature", "properties": { "candidate_id": 9051, "edge_a": 62331, "edge_b": 62333, "node_a": 57653, "node_b": 57654, "distance_m": 0.30697299533628841, "confidence": "strong" }, "geometry": { "type": "Point", "coordinates": [ 80.246006633075979, 13.170142701123083 ] } },
{ "type": "Feature", "properties": { "candidate_id": 9087, "edge_a": 62511, "edge_b": 62512, "node_a": 57792, "node_b": 57793, "distance_m": 0.30947471625991185, "confidence": "strong" }, "geometry": { "type": "Point", "coordinates": [ 80.25880035479824, 13.169526982346559 ] } },
{ "type": "Feature", "properties": { "candidate_id": 9233, "edge_a": 63206, "edge_b": 63208, "node_a": 57818, "node_b": 57819, "distance_m": 0.40866887597739598, "confidence": "strong" }, "geometry": { "type": "Point", "coordinates": [ 80.278728523582956, 13.201932462069166 ] } },
{ "type": "Feature", "properties": { "candidate_id": 9898, "edge_a": 67508, "edge_b": 67509, "node_a": 41747, "node_b": 41748, "distance_m": 0.27807684139751265, "confidence": "strong" }, "geometry": { "type": "Point", "coordinates": [ 80.262335658604755, 13.028871987911128 ] } },
{ "type": "Feature", "properties": { "candidate_id": 10319, "edge_a": 70199, "edge_b": 70200, "node_a": 57946, "node_b": 57947, "distance_m": 0.29999768171182301, "confidence": "strong" }, "geometry": { "type": "Point", "coordinates": [ 80.193875939422981, 13.060962012834194 ] } },
{ "type": "Feature", "properties": { "candidate_id": 10456, "edge_a": 71094, "edge_b": 71095, "node_a": 59683, "node_b": 59682, "distance_m": 0.23082677467967394, "confidence": "strong" }, "geometry": { "type": "Point", "coordinates": [ 80.208369215447846, 13.160753317012912 ] } },
{ "type": "Feature", "properties": { "candidate_id": 11329, "edge_a": 77431, "edge_b": 77433, "node_a": 49673, "node_b": 29457, "distance_m": 0.16387318256681171, "confidence": "strong" }, "geometry": { "type": "Point", "coordinates": [ 80.211143856322792, 13.113729936958649 ] } },
{ "type": "Feature", "properties": { "candidate_id": 11710, "edge_a": 80232, "edge_b": 80233, "node_a": 70771, "node_b": 70774, "distance_m": 0.48564390207801617, "confidence": "strong" }, "geometry": { "type": "Point", "coordinates": [ 80.184095111203064, 13.05405420162838 ] } },
{ "type": "Feature", "properties": { "candidate_id": 14420, "edge_a": 101944, "edge_b": 101943, "node_a": 80024, "node_b": 80023, "distance_m": 0.44800004473470045, "confidence": "strong" }, "geometry": { "type": "Point", "coordinates": [ 80.274823530125602, 13.096570677426763 ] } },
{ "type": "Feature", "properties": { "candidate_id": 14607, "edge_a": 103793, "edge_b": 103794, "node_a": 82343, "node_b": 82342, "distance_m": 0.30574461542835435, "confidence": "strong" }, "geometry": { "type": "Point", "coordinates": [ 80.196270041433536, 13.050591553052195 ] } },
{ "type": "Feature", "properties": { "candidate_id": 14829, "edge_a": 105163, "edge_b": 105164, "node_a": 24653, "node_b": 24654, "distance_m": 0.41292184504587909, "confidence": "strong" }, "geometry": { "type": "Point", "coordinates": [ 80.207171520353441, 13.109470192469997 ] } }
]
}
